{"type": "FeatureCollection", "features": [{"type": "Feature", "properties": {"norad_id": 28890, "name": "BEIJING 1", "group": "dmc", "lat": 72.50403337822736, "lon": -33.4482506438103, "alt_km": 665.13113830167, "timestamp": "2025-12-17T13:48:37.210865+00:00", "meta": {"OBJECT_NAME": "BEIJING 1", "OBJECT_ID": "2005-043A", "EPOCH": "2025-12-17T08:24:27.033696", "MEAN_MOTION": 14.63370965, "ECCENTRICITY": 0.0015504, "INCLINATION": 98.2647, "RA_OF_ASC_NODE": 118.8675, "ARG_OF_PERICENTER": 127.5155, "MEAN_ANOMALY": 232.7458, "EPHEMERIS_TYPE": 0, "CLASSIFICATION_TYPE": "U", "NORAD_CAT_ID": 28890, "ELEMENT_SET_NO": 999, "REV_AT_EPOCH": 7405, "BSTAR": 7.6047546e-05, "MEAN_MOTION_DOT": 3.45e-06, "MEAN_MOTION_DDOT": 0}, "tle": {"line1": "1 28890U 05043A   25351.35031289  .00000345  00000+0  76048-4 0  9996", "line2": "2 28890  98.2647 118.8675 0015504 127.5155 232.7458 14.63370965 74053"}}, "geometry": {"type": "Point", "coordinates": [-33.4482506438103, 72.50403337822736]}}, {"type": "Feature", "properties": {"norad_id": 33320, "name": "HUANJING 1A (HJ-1A)", "group": "dmc", "lat": 57.964571033787166, "lon": 172.08263482223344, "alt_km": 615.8490336157056, "timestamp": "2025-12-17T13:48:37.210893+00:00", "meta": {"OBJECT_NAME": "HUANJING 1A (HJ-1A)", "OBJECT_ID": "2008-041A", "EPOCH": "2025-12-17T06:47:30.897600", "MEAN_MOTION": 14.83411479, "ECCENTRICITY": 0.00198924, "INCLINATION": 97.6538, "RA_OF_ASC_NODE": 339.3922, "ARG_OF_PERICENTER": 20.2102, "MEAN_ANOMALY": 339.9896, "EPHEMERIS_TYPE": 0, "CLASSIFICATION_TYPE": "U", "NORAD_CAT_ID": 33320, "ELEMENT_SET_NO": 999, "REV_AT_EPOCH": 93143, "BSTAR": 0.00020761765, "MEAN_MOTION_DOT": 1.658e-05, "MEAN_MOTION_DDOT": 0}, "tle": {"line1": "1 33320U 08041A   25351.28299650  .00001658  00000+0  20762-3 0  9990", "line2": "2 33320  97.6538 339.3922 0019892  20.2102 339.9896 14.83411479931437"}}, "geometry": {"type": "Point", "coordinates": [172.08263482223344, 57.964571033787166]}}, {"type": "Feature", "properties": {"norad_id": 33321, "name": "HUANJING 1B (HJ-1B)", "group": "dmc", "lat": -28.255801367582826, "lon": -12.506369572769236, "alt_km": 625.5880833485389, "timestamp": "2025-12-17T13:48:37.210907+00:00", "meta": {"OBJECT_NAME": "HUANJING 1B (HJ-1B)", "OBJECT_ID": "2008-041B", "EPOCH": "2025-12-17T04:13:16.976352", "MEAN_MOTION": 14.828325, "ECCENTRICITY": 0.00381446, "INCLINATION": 97.6398, "RA_OF_ASC_NODE": 342.9749, "ARG_OF_PERICENTER": 61.65, "MEAN_ANOMALY": 298.8553, "EPHEMERIS_TYPE": 0, "CLASSIFICATION_TYPE": "U", "NORAD_CAT_ID": 33321, "ELEMENT_SET_NO": 999, "REV_AT_EPOCH": 93143, "BSTAR": 8.1189085e-05, "MEAN_MOTION_DOT": 6.14e-06, "MEAN_MOTION_DDOT": 0}, "tle": {"line1": "1 33321U 08041B   25351.17589093  .00000614  00000+0  81189-4 0  9994", "line2": "2 33321  97.6398 342.9749 0038144  61.6500 298.8553 14.82832500931435"}}, "geometry": {"type": "Point", "coordinates": [-12.506369572769236, -28.255801367582826]}}, {"type": "Feature", "properties": {"norad_id": 33446, "name": "YAOGAN-4", "group": "dmc", "lat": -60.30103244252471, "lon": 87.50239314691724, "alt_km": 624.0764300769688, "timestamp": "2025-12-17T13:48:37.210919+00:00", "meta": {"OBJECT_NAME": "YAOGAN-4", "OBJECT_ID": "2008-061A", "EPOCH": "2025-12-17T07:51:55.678464", "MEAN_MOTION": 14.82696189, "ECCENTRICITY": 0.0013301, "INCLINATION": 97.9188, "RA_OF_ASC_NODE": 281.382, "ARG_OF_PERICENTER": 307.3083, "MEAN_ANOMALY": 52.6917, "EPHEMERIS_TYPE": 0, "CLASSIFICATION_TYPE": "U", "NORAD_CAT_ID": 33446, "ELEMENT_SET_NO": 999, "REV_AT_EPOCH": 91871, "BSTAR": 0.00015900688, "MEAN_MOTION_DOT": 1.231e-05, "MEAN_MOTION_DDOT": 0}, "tle": {"line1": "1 33446U 08061A   25351.32772776  .00001231  00000+0  15901-3 0  9997", "line2": "2 33446  97.9188 281.3820 0013301 307.3083  52.6917 14.82696189918710"}}, "geometry": {"type": "Point", "coordinates": [87.50239314691724, -60.30103244252471]}}, {"type": "Feature", "properties": {"norad_id": 35681, "name": "DEIMOS-1", "group": "dmc", "lat": -55.952397787380164, "lon": -39.61942030475536, "alt_km": 654.1598002105911, "timestamp": "2025-12-17T13:48:37.210930+00:00", "meta": {"OBJECT_NAME": "DEIMOS-1", "OBJECT_ID": "2009-041A", "EPOCH": "2025-12-17T07:51:22.449024", "MEAN_MOTION": 14.74959408, "ECCENTRICITY": 0.00026568, "INCLINATION": 97.7143, "RA_OF_ASC_NODE": 151.7163, "ARG_OF_PERICENTER": 71.7768, "MEAN_ANOMALY": 288.3731, "EPHEMERIS_TYPE": 0, "CLASSIFICATION_TYPE": "U", "NORAD_CAT_ID": 35681, "ELEMENT_SET_NO": 999, "REV_AT_EPOCH": 88007, "BSTAR": 6.8972831e-05, "MEAN_MOTION_DOT": 4.16e-06, "MEAN_MOTION_DDOT": 0}, "tle": {"line1": "1 35681U 09041A   25351.32734316  .00000416  00000+0  68973-4 0  9999", "line2": "2 35681  97.7143 151.7163 0002656  71.7768 288.3731 14.74959408880071"}}, "geometry": {"type": "Point", "coordinates": [-39.61942030475536, -55.952397787380164]}}, {"type": "Feature", "properties": {"norad_id": 35683, "name": "UK-DMC 2", "group": "dmc", "lat": -79.79145822009079, "lon": -103.71340747313306, "alt_km": 651.5119923438269, "timestamp": "2025-12-17T13:48:37.210940+00:00", "meta": {"OBJECT_NAME": "UK-DMC 2", "OBJECT_ID": "2009-041C", "EPOCH": "2025-12-17T07:44:16.052928", "MEAN_MOTION": 14.75631912, "ECCENTRICITY": 0.00014733, "INCLINATION": 97.8554, "RA_OF_ASC_NODE": 126.0951, "ARG_OF_PERICENTER": 94.8634, "MEAN_ANOMALY": 265.2744, "EPHEMERIS_TYPE": 0, "CLASSIFICATION_TYPE": "U", "NORAD_CAT_ID": 35683, "ELEMENT_SET_NO": 999, "REV_AT_EPOCH": 87974, "BSTAR": 0.00011458706, "MEAN_MOTION_DOT": 7.33e-06, "MEAN_MOTION_DDOT": 0}, "tle": {"line1": "1 35683U 09041C   25351.32240802  .00000733  00000+0  11459-3 0  9991", "line2": "2 35683  97.8554 126.0951 0001473  94.8634 265.2744 14.75631912879742"}}, "geometry": {"type": "Point", "coordinates": [-103.71340747313306, -79.79145822009079]}}, {"type": "Feature", "properties": {"norad_id": 40715, "name": "DMC3-FM1", "group": "dmc", "lat": 56.15158551490957, "lon": 50.18247999821611, "alt_km": 609.8690691686861, "timestamp": "2025-12-17T13:48:37.210951+00:00", "meta": {"OBJECT_NAME": "DMC3-FM1", "OBJECT_ID": "2015-032A", "EPOCH": "2025-12-17T06:47:29.873760", "MEAN_MOTION": 14.8544928, "ECCENTRICITY": 0.000435, "INCLINATION": 97.6694, "RA_OF_ASC_NODE": 218.3098, "ARG_OF_PERICENTER": 304.503, "MEAN_ANOMALY": 55.5774, "EPHEMERIS_TYPE": 0, "CLASSIFICATION_TYPE": "U", "NORAD_CAT_ID": 40715, "ELEMENT_SET_NO": 999, "REV_AT_EPOCH": 56290, "BSTAR": 8.2547964e-05, "MEAN_MOTION_DOT": 6.6e-06, "MEAN_MOTION_DDOT": 0}, "tle": {"line1": "1 40715U 15032A   25351.28298465  .00000660  00000+0  82548-4 0  9990", "line2": "2 40715  97.6694 218.3098 0004350 304.5030  55.5774 14.85449280562908"}}, "geometry": {"type": "Point", "coordinates": [50.18247999821611, 56.15158551490957]}}, {"type": "Feature", "properties": {"norad_id": 40716, "name": "DMC3-FM2", "group": "dmc", "lat": 2.700279095548907, "lon": -140.32558310527338, "alt_km": 612.8055525248383, "timestamp": "2025-12-17T13:48:37.210961+00:00", "meta": {"OBJECT_NAME": "DMC3-FM2", "OBJECT_ID": "2015-032B", "EPOCH": "2025-12-17T07:19:53.164416", "MEAN_MOTION": 14.85447508, "ECCENTRICITY": 0.00050029, "INCLINATION": 97.6752, "RA_OF_ASC_NODE": 219.7786, "ARG_OF_PERICENTER": 309.6369, "MEAN_ANOMALY": 50.4405, "EPHEMERIS_TYPE": 0, "CLASSIFICATION_TYPE": "U", "NORAD_CAT_ID": 40716, "ELEMENT_SET_NO": 999, "REV_AT_EPOCH": 56290, "BSTAR": 4.915108e-06, "MEAN_MOTION_DOT": -9e-08, "MEAN_MOTION_DDOT": 0}, "tle": {"line1": "1 40716U 15032B   25351.30547644 -.00000009  00000+0  49151-5 0  9992", "line2": "2 40716  97.6752 219.7786 0005002 309.6369  50.4405 14.85447508562905"}}, "geometry": {"type": "Point", "coordinates": [-140.32558310527338, 2.700279095548907]}}, {"type": "Feature", "properties": {"norad_id": 40717, "name": "DMC3-FM3", "group": "dmc", "lat": -65.84575578276362, "lon": 24.1619356339797, "alt_km": 618.0724111520949, "timestamp": "2025-12-17T13:48:37.210971+00:00", "meta": {"OBJECT_NAME": "DMC3-FM3", "OBJECT_ID": "2015-032C", "EPOCH": "2025-12-17T06:14:04.732800", "MEAN_MOTION": 14.8543508, "ECCENTRICITY": 0.0004374, "INCLINATION": 97.6805, "RA_OF_ASC_NODE": 221.3703, "ARG_OF_PERICENTER": 310.9235, "MEAN_ANOMALY": 49.1601, "EPHEMERIS_TYPE": 0, "CLASSIFICATION_TYPE": "U", "NORAD_CAT_ID": 40717, "ELEMENT_SET_NO": 999, "REV_AT_EPOCH": 56290, "BSTAR": 3.2513216e-05, "MEAN_MOTION_DOT": 2.29e-06, "MEAN_MOTION_DDOT": 0}, "tle": {"line1": "1 40717U 15032C   25351.25977700  .00000229  00000+0  32513-4 0  9993", "line2": "2 40717  97.6805 221.3703 0004374 310.9235  49.1601 14.85435080562906"}}, "geometry": {"type": "Point", "coordinates": [24.1619356339797, -65.84575578276362]}}]}